ORBCOMM FM103           
1 40091U 14040F   25354.05871106  .00000328  00000+0  10627-3 0  9991
2 40091  47.0041 219.7799 0001399  40.0676 320.0313 14.58544965591234
ORBCOMM FM114           
1 41179U 15081A   25354.41789338  .00000239  00000+0  87369-4 0  9999
2 41179  47.0038 127.0360 0001756 115.9094 244.1973 14.58564428531650
ORBCOMM FM119           
1 41180U 15081B   25354.55122282  .00000380  00000+0  11732-3 0  9992
2 41180  47.0015  35.7651 0001495 225.5820 134.4943 14.58513695532929
ORBCOMM FM105           
1 41181U 15081C   25354.18147738  .00000135  00000+0  82428-4 0  9994
2 41181  47.0019  60.6359 0000813  70.9617 289.1351 14.45410551527653
ORBCOMM FM110           
1 41182U 15081D   25354.54472084  .00000471  00000+0  13652-3 0  9995
2 41182  47.0011 125.9355 0002556 313.5016  46.5657 14.58593879531548
ORBCOMM FM118           
1 41183U 15081E   25354.37372802  .00000405  00000+0  12267-3 0  9992
2 41183  47.0032 127.0429 0003246 278.2608  81.7909 14.58585880531621
ORBCOMM FM112           
1 41184U 15081F   25354.51340560  .00000443  00000+0  13066-3 0  9995
2 41184  47.0000  34.9163 0000744 141.1556 218.9384 14.58590626532860
ORBCOMM FM113           
1 41185U 15081G   25354.49068125  .00000557  00000+0  15482-3 0  9997
2 41185  47.0015  35.3803 0000740 172.7143 187.3754 14.58587676532840
